PROGRESS-MS 32          
1 65586U 25204A   25308.16441419  .00010829  00000+0  19922-3 0  9996
2 65586  51.6336 333.4485 0005035  15.3367 344.7773 15.49739341   274
CYGNUS NG-23            
1 65616U 25208A   25308.16441419  .00010829  00000+0  19922-3 0  9994
2 65616  51.6336 333.4485 0005035  15.3367 344.7773 15.49739341   223
DRAGONFLY               
1 65729U 98067XH  25307.35234976  .00089643  00000+0  10812-2 0  9998
2 65729  51.6315 335.5297 0003631  71.0285 289.1102 15.60005687  6997
1998-067XJ              
1 65730U 98067XJ  25308.45906014  .00266038  00000+0  21415-2 0  9997
2 65730  51.6285 328.6616 0011122  56.8012 303.4050 15.69488856  7182
1998-067XK              
1 65731U 98067XK  25308.46957784  .00065577  00000+0  85492-3 0  9990
2 65731  51.6321 330.2412 0005095  54.3630 305.7837 15.58077859  7169
RSP-03                  
1 65732U 98067XL  25308.32755644  .00078690  00000+0  98401-3 0  9991
2 65732  51.6309 330.7921 0005909  54.9153 305.2393 15.59100954  7151
GHS-01                  
1 65733U 98067XM  25308.30363461  .00104594  00000+0  12127-2 0  9995
2 65733  51.6324 330.6344 0004187  71.8718 288.2732 15.60965600  7155
YOTSUBA-KULOVER         
1 65941U 98067XN  25307.80288005  .00054932  00000+0  85064-3 0  9991
2 65941  51.6325 334.7856 0002645   1.5585 358.5413 15.53493482  3798
BOTAN                   
1 65942U 98067XP  25307.79562075  .00074105  00000+0  11038-2 0  9995
2 65942  51.6325 334.7378 0004805  16.4520 343.6625 15.54427286  3792
E-KAGAKU-1              
1 65943U 98067XQ  25307.35213755  .00049569  00000+0  76995-3 0  9996
2 65943  51.6338 337.0259 0004475   1.7618 358.3388 15.53447140  3721
HTV-X1                  
1 66174U 25241A   25308.16441419  .00010829  00000+0  19922-3 0  9991
2 66174  51.6336 333.4485 0005035  15.3367 344.7773 15.49739341  1392
